{"type":"FeatureCollection","features":[{"type":"Feature","properties":{"id":"geneva-airport-kandersteg-rail"},"geometry":{"type":"MultiLineString","coordinates":[[[6.112031,46.232729],[6.106776,46.228917],[6.103291,46.226988],[6.100534,46.224742],[6.099117,46.221436],[6.10001,46.219264],[6.109524,46.211417],[6.113137,46.209571],[6.128106,46.205508],[6.133755,46.205764],[6.137528,46.206633],[6.143446,46.211531],[6.144788,46.214057],[6.144483,46.224216],[6.145669,46.228146],[6.145567,46.232615],[6.146944,46.237614],[6.147158,46.250217],[6.147599,46.252145],[6.150012,46.254995],[6.155246,46.25755],[6.157239,46.259147],[6.161148,46.263953],[6.165867,46.271668],[6.165905,46.278528],[6.163325,46.283785],[6.161849,46.291076],[6.162557,46.293989],[6.167061,46.298091],[6.182192,46.308447],[6.185314,46.311677],[6.188604,46.319764],[6.196079,46.331894],[6.199351,46.346009],[6.200905,46.348874],[6.214449,46.360873],[6.226267,46.376176],[6.238759,46.387069],[6.243163,46.394568],[6.251683,46.401586],[6.262919,46.413825],[6.285376,46.435694],[6.290225,46.439128],[6.305357,46.444742],[6.320464,46.452112],[6.337173,46.463067],[6.346094,46.465844],[6.352433,46.468819],[6.355786,46.469931],[6.365902,46.471661],[6.375855,46.471059],[6.37973,46.471222],[6.401208,46.47601],[6.408373,46.476838],[6.411973,46.476763],[6.42987,46.474853],[6.434237,46.474891],[6.437956,46.475596],[6.451501,46.479675],[6.455033,46.481686],[6.461687,46.4879],[6.473908,46.496162],[6.476417,46.497446],[6.480902,46.499008],[6.483396,46.500454],[6.485288,46.502283],[6.489272,46.507849],[6.49564,46.512381],[6.499469,46.514364],[6.520995,46.523645],[6.527692,46.525864],[6.539054,46.528608],[6.542607,46.529901],[6.553818,46.536223],[6.555523,46.537847],[6.557721,46.541335],[6.559388,46.542458],[6.561417,46.543165],[6.565281,46.543338],[6.569753,46.542034],[6.593748,46.529997],[6.611963,46.523549],[6.618728,46.519128],[6.629512,46.516768]],[[6.629512,46.516768],[6.631909,46.51621],[6.635412,46.513924],[6.638243,46.513308],[6.641023,46.513418],[6.647383,46.514716],[6.668774,46.51478],[6.67271,46.515193],[6.675922,46.514534],[6.679926,46.511848],[6.681827,46.51121],[6.684792,46.511197],[6.691933,46.512022],[6.694326,46.511879],[6.696451,46.511198],[6.700355,46.508952],[6.704866,46.503168],[6.706784,46.502226],[6.711512,46.50088],[6.714356,46.497844],[6.716505,46.496698],[6.719698,46.496387],[6.733114,46.498723],[6.735661,46.498724],[6.740327,46.497215],[6.747538,46.49608],[6.755206,46.490909],[6.756733,46.490265],[6.759638,46.489986],[6.762423,46.490759],[6.76646,46.494475],[6.76785,46.497848],[6.769263,46.499217],[6.771868,46.500191],[6.778274,46.500831],[6.782359,46.502934],[6.784254,46.505112],[6.786995,46.511036],[6.789947,46.513744],[6.794292,46.515439],[6.801537,46.515678],[6.8048,46.516614],[6.806795,46.518054],[6.81164,46.523813],[6.81455,46.526039],[6.817336,46.529087],[6.819005,46.529846],[6.822216,46.530431],[6.825062,46.531408],[6.834718,46.535861],[6.836407,46.537997],[6.837196,46.541766],[6.837916,46.543042],[6.839486,46.544223],[6.842951,46.54562],[6.844152,46.546705],[6.844792,46.548304],[6.844345,46.551513],[6.845365,46.558177],[6.843705,46.560308],[6.840869,46.56219],[6.838257,46.565179],[6.836611,46.568608],[6.83687,46.571704],[6.838956,46.57558],[6.839175,46.578871],[6.838108,46.580365],[6.834077,46.582793],[6.831493,46.587121],[6.832592,46.590967],[6.83583,46.595189],[6.83561,46.601703],[6.836629,46.602963],[6.841313,46.606124],[6.841806,46.607441],[6.841201,46.609811],[6.841515,46.611169],[6.844958,46.613962],[6.849067,46.620344],[6.856555,46.628169],[6.86761,46.637847],[6.88326,46.655891],[6.886171,46.660445],[6.891602,46.663705],[6.897202,46.669679],[6.901932,46.679163],[6.905688,46.683249],[6.905808,46.688259],[6.906293,46.689537],[6.908671,46.691756],[6.913101,46.694501],[6.916322,46.698392],[6.959394,46.71969],[6.961697,46.721741],[6.963936,46.725304],[6.970436,46.733471],[6.976582,46.7392],[6.97901,46.740745],[6.986959,46.743359],[6.996513,46.748379],[6.999223,46.749077],[7.005874,46.749816],[7.012898,46.753185],[7.015864,46.753217],[7.023761,46.751455],[7.034833,46.751334],[7.038828,46.75192],[7.041746,46.753559],[7.044763,46.757706],[7.048466,46.759929],[7.050816,46.760914],[7.055186,46.761896],[7.064075,46.76526],[7.065896,46.767207],[7.065848,46.769537],[7.064978,46.77071],[7.06029,46.774612],[7.058228,46.77829],[7.058803,46.780518],[7.061039,46.782169],[7.063016,46.782679],[7.071332,46.783177],[7.07641,46.784053],[7.078874,46.784958],[7.082043,46.78712],[7.084327,46.787827],[7.086515,46.787928],[7.090494,46.787293],[7.092902,46.787539],[7.098707,46.789855],[7.101803,46.791711],[7.104063,46.792323],[7.108904,46.792558],[7.111109,46.79226],[7.115225,46.790138],[7.118986,46.788996],[7.121741,46.787465],[7.124684,46.786919],[7.127164,46.787256],[7.13168,46.788972],[7.139207,46.789393],[7.146762,46.79232],[7.148158,46.793497],[7.149142,46.795392],[7.148574,46.798866],[7.148953,46.800613],[7.153571,46.806854],[7.153574,46.811507],[7.154542,46.813524],[7.160866,46.820249],[7.165529,46.82346],[7.172674,46.832961],[7.177949,46.836298],[7.188898,46.850426],[7.191382,46.852344],[7.199628,46.856745],[7.204023,46.861661],[7.205386,46.862632],[7.20763,46.863326],[7.216716,46.86422],[7.231443,46.86676],[7.234013,46.866891],[7.245037,46.866416],[7.256834,46.861701],[7.258659,46.86136],[7.2607,46.861478],[7.262506,46.862047],[7.270395,46.866368],[7.276533,46.869144],[7.279721,46.871345],[7.287824,46.875437],[7.297261,46.877647],[7.298946,46.879093],[7.299962,46.881343],[7.301319,46.882658],[7.303168,46.883471],[7.308353,46.884601],[7.311404,46.887411],[7.313438,46.88838],[7.315912,46.888688],[7.32683,46.887743],[7.334797,46.887913],[7.341693,46.888774],[7.345906,46.888759],[7.348522,46.889431],[7.350324,46.890326],[7.351506,46.891562],[7.351952,46.892877],[7.351591,46.895341],[7.351948,46.896748],[7.354108,46.899527],[7.363872,46.917509],[7.366453,46.920058],[7.376705,46.925766],[7.41728,46.951539],[7.41952,46.952059],[7.422064,46.951865],[7.428636,46.948457],[7.430453,46.947909],[7.433134,46.947894],[7.437822,46.94901]],[[7.437137,46.948576],[7.43958,46.949871],[7.442767,46.955302],[7.44353,46.959477],[7.44607,46.962205],[7.447632,46.963156],[7.463638,46.966901],[7.466496,46.96666],[7.474966,46.964527],[7.477915,46.963097],[7.48012,46.961171],[7.483313,46.951094],[7.492629,46.941601],[7.528795,46.921119],[7.53617,46.914702],[7.538152,46.912006],[7.549347,46.892418],[7.554269,46.886988],[7.556253,46.883536],[7.584312,46.788837],[7.58587,46.785342],[7.587939,46.782438],[7.590472,46.779908],[7.613221,46.761834],[7.615341,46.760923],[7.619646,46.760811],[7.623474,46.758945],[7.631303,46.753417],[7.632962,46.750407],[7.633091,46.749171],[7.632453,46.748066],[7.626703,46.744359],[7.62563,46.743096],[7.619564,46.724465],[7.619771,46.72221],[7.621085,46.720983],[7.633667,46.71386],[7.644794,46.708856],[7.650143,46.705908],[7.651307,46.704719],[7.652667,46.701794],[7.661864,46.695958],[7.664004,46.69209],[7.665663,46.690651],[7.668116,46.689777],[7.674646,46.689355],[7.677296,46.688233],[7.679596,46.686494]],[[7.679703,46.686557],[7.686106,46.682272],[7.687392,46.680605],[7.687151,46.678989],[7.685383,46.67737],[7.672316,46.673474],[7.670644,46.671885],[7.670224,46.669649],[7.671519,46.666355],[7.674795,46.663465],[7.681302,46.653988],[7.682472,46.652978],[7.685964,46.651234],[7.689278,46.646916],[7.691281,46.63698],[7.691242,46.629283],[7.689249,46.623576],[7.68802,46.621848],[7.683067,46.619841],[7.680738,46.617397],[7.677024,46.61522],[7.670878,46.609333],[7.664658,46.605883],[7.655104,46.59876],[7.652682,46.593417],[7.650283,46.58308],[7.64867,46.579513],[7.649578,46.577582],[7.653014,46.576203],[7.655428,46.574578],[7.660308,46.569767],[7.662748,46.55785],[7.662755,46.553201],[7.664096,46.550552],[7.664179,46.547943],[7.665062,46.546607],[7.66777,46.544783],[7.668934,46.542664],[7.671336,46.533638],[7.671148,46.529991],[7.669105,46.527315],[7.668943,46.525897],[7.670039,46.524481],[7.672091,46.523748],[7.673846,46.523807],[7.675394,46.524396],[7.67639,46.525364],[7.676678,46.526587],[7.675938,46.52839],[7.672382,46.531629],[7.671839,46.534124],[7.670434,46.536044],[7.670681,46.541757],[7.669898,46.545968],[7.671377,46.547609],[7.673799,46.548176],[7.676431,46.54748],[7.677687,46.545929],[7.677595,46.544681],[7.6767,46.543586],[7.672717,46.541912],[7.671544,46.541019],[7.671071,46.539926],[7.671353,46.53821],[7.673814,46.533737],[7.682777,46.524775],[7.683692,46.522677],[7.684049,46.518893],[7.68355,46.517223],[7.68214,46.515217],[7.67519,46.508948],[7.675018,46.503258],[7.671322,46.495413]]]}},{"type":"Feature","properties":{"id":"kandersteg-oeschinensee-hike"},"geometry":{"type":"LineString","coordinates":[[7.683484,46.497258],[7.683009,46.497266],[7.68288,46.497472],[7.682171,46.497187],[7.681184,46.496284],[7.680345,46.495998],[7.683913,46.495808],[7.684797,46.495494],[7.685926,46.495533],[7.687706,46.495223],[7.689752,46.495207],[7.690955,46.495551],[7.692491,46.495136],[7.693066,46.495089],[7.693628,46.495347],[7.695637,46.49493],[7.693739,46.496914],[7.696647,46.495762],[7.695809,46.496629],[7.697675,46.495945],[7.698065,46.495651],[7.697834,46.496135],[7.699421,46.495457],[7.700915,46.495756],[7.702113,46.495168],[7.702477,46.494855],[7.702633,46.4944],[7.703909,46.494322],[7.705875,46.494968],[7.707265,46.49594],[7.708862,46.496426],[7.709527,46.496478],[7.710446,46.496108],[7.712495,46.496644],[7.713617,46.497279],[7.714104,46.497262],[7.714388,46.49749],[7.714868,46.497532],[7.715707,46.498332],[7.716815,46.498587],[7.717271,46.499041]]}},{"type":"Feature","properties":{"id":"kandersteg-spiez-rail"},"geometry":{"type":"LineString","coordinates":[[7.679703,46.686557],[7.686106,46.682272],[7.687392,46.680605],[7.687151,46.678989],[7.685383,46.67737],[7.672316,46.673474],[7.670644,46.671885],[7.670224,46.669649],[7.671519,46.666355],[7.674795,46.663465],[7.681302,46.653988],[7.682472,46.652978],[7.685964,46.651234],[7.689278,46.646916],[7.691281,46.63698],[7.691242,46.629283],[7.689249,46.623576],[7.68802,46.621848],[7.683067,46.619841],[7.680738,46.617397],[7.677024,46.61522],[7.670878,46.609333],[7.664658,46.605883],[7.655104,46.59876],[7.652682,46.593417],[7.650283,46.58308],[7.64867,46.579513],[7.649578,46.577582],[7.653014,46.576203],[7.655428,46.574578],[7.660308,46.569767],[7.662748,46.55785],[7.662755,46.553201],[7.664096,46.550552],[7.664179,46.547943],[7.665062,46.546607],[7.66777,46.544783],[7.668934,46.542664],[7.671336,46.533638],[7.671148,46.529991],[7.669105,46.527315],[7.668943,46.525897],[7.670039,46.524481],[7.672091,46.523748],[7.673846,46.523807],[7.675394,46.524396],[7.67639,46.525364],[7.676678,46.526587],[7.675938,46.52839],[7.672382,46.531629],[7.671839,46.534124],[7.670434,46.536044],[7.670681,46.541757],[7.669898,46.545968],[7.671377,46.547609],[7.673799,46.548176],[7.676431,46.54748],[7.677687,46.545929],[7.677595,46.544681],[7.6767,46.543586],[7.672717,46.541912],[7.671544,46.541019],[7.671071,46.539926],[7.671353,46.53821],[7.673814,46.533737],[7.682777,46.524775],[7.683692,46.522677],[7.684049,46.518893],[7.68355,46.517223],[7.68214,46.515217],[7.67519,46.508948],[7.675018,46.503258],[7.671322,46.495413]]}},{"type":"Feature","properties":{"id":"spiez-interlaken-rail"},"geometry":{"type":"LineString","coordinates":[[7.679703,46.686557],[7.682245,46.684592],[7.685776,46.68268],[7.690044,46.678448],[7.69654,46.674147],[7.703208,46.672052],[7.705971,46.671664],[7.713825,46.669568],[7.718565,46.667456],[7.723196,46.666824],[7.725567,46.665334],[7.729728,46.66361],[7.73414,46.66381],[7.741376,46.662309],[7.744103,46.661197],[7.745844,46.659464],[7.75158,46.65639],[7.760671,46.654281],[7.76636,46.655792],[7.768181,46.655605],[7.770848,46.654692],[7.772815,46.654673],[7.777195,46.656266],[7.782403,46.657447],[7.787387,46.657754],[7.790268,46.659329],[7.792729,46.659965],[7.801737,46.66395],[7.803895,46.664448],[7.806686,46.664129],[7.808858,46.662512],[7.815067,46.659794],[7.816827,46.659674],[7.820443,46.660227],[7.823941,46.6617],[7.828764,46.664981],[7.840155,46.670315],[7.84965,46.677457],[7.850659,46.679207],[7.85196,46.684998],[7.854238,46.687106],[7.85654,46.690358],[7.858472,46.690906],[7.862365,46.690339],[7.869692,46.691116]]}},{"type":"Feature","properties":{"id":"interlaken-iseltwald-bus"},"geometry":{"type":"LineString","coordinates":[[7.869036,46.690286],[7.868655,46.690207],[7.869435,46.687302],[7.874617,46.688036],[7.874753,46.688877],[7.877443,46.687358],[7.878845,46.685117],[7.878491,46.684043],[7.877563,46.683522],[7.877172,46.683986],[7.878108,46.684646],[7.881569,46.685349],[7.883874,46.684928],[7.888435,46.683052],[7.892027,46.682822],[7.903493,46.686088],[7.916481,46.686995],[7.919351,46.687767],[7.923454,46.690207],[7.932053,46.693279],[7.937665,46.695724],[7.940073,46.697143],[7.943065,46.700024],[7.947032,46.70243],[7.953046,46.703646],[7.957443,46.705916],[7.96273,46.707028],[7.962916,46.707304],[7.962181,46.707583],[7.960324,46.707136],[7.96295,46.708634],[7.962659,46.710565],[7.963283,46.71068]]}},{"type":"Feature","properties":{"id":"interlaken-lauterbrunnen-rail"},"geometry":{"type":"LineString","coordinates":[[7.869798,46.690694],[7.872048,46.690802],[7.873371,46.689917],[7.874593,46.682691],[7.876435,46.679261],[7.875365,46.675845],[7.870348,46.672572],[7.869603,46.671625],[7.870784,46.668111],[7.86914,46.665171],[7.870354,46.663051],[7.869196,46.661021],[7.868551,46.655497],[7.870503,46.652904],[7.872715,46.651372],[7.874306,46.647621],[7.876288,46.645616],[7.879655,46.643662],[7.884757,46.641986],[7.887757,46.638961],[7.889209,46.638561],[7.892128,46.638463],[7.893348,46.638027],[7.895609,46.634781],[7.899019,46.63375],[7.901364,46.630764],[7.902963,46.629557],[7.902861,46.628104],[7.903959,46.624302],[7.903618,46.62237],[7.902174,46.619755],[7.902663,46.617949],[7.901918,46.615932],[7.902988,46.613962],[7.901981,46.611775],[7.902944,46.608798],[7.905357,46.60708],[7.906692,46.603127],[7.906454,46.600801],[7.907659,46.599384],[7.908019,46.5981]]}},{"type":"Feature","properties":{"id":"lauterbrunnen-grutschalp-cable"},"geometry":{"type":"LineString","coordinates":[[7.907198,46.598768],[7.890919,46.596583]]}},{"type":"Feature","properties":{"id":"grutschalp-murren-rail"},"geometry":{"type":"LineString","coordinates":[[7.890849,46.596411],[7.890779,46.594588],[7.891364,46.593544],[7.892006,46.592994],[7.893719,46.592366],[7.894123,46.591789],[7.893697,46.590404],[7.893913,46.589213],[7.893823,46.588428],[7.892912,46.587448],[7.893014,46.586294],[7.892562,46.585668],[7.892562,46.585328],[7.892998,46.584952],[7.894205,46.584738],[7.895195,46.583907],[7.896054,46.582416],[7.89596,46.581268],[7.895637,46.580436],[7.896753,46.578717],[7.897801,46.578093],[7.898002,46.57759],[7.898487,46.57724],[7.901205,46.576905],[7.901858,46.575278],[7.901779,46.574647],[7.901312,46.573837],[7.90032,46.572666],[7.899217,46.570893],[7.898474,46.567949],[7.897328,46.565813],[7.897449,46.565184],[7.897233,46.564091]]}},{"type":"Feature","properties":{"id":"lauterbrunnen-wengen-rail"},"geometry":{"type":"LineString","coordinates":[[7.908157,46.598109],[7.90843,46.596545],[7.908283,46.595788],[7.908973,46.59478],[7.9101,46.594188],[7.910659,46.594073],[7.912747,46.594275],[7.913399,46.594491],[7.914126,46.595196],[7.914376,46.596192],[7.91534,46.596995],[7.915486,46.597448],[7.914404,46.599598],[7.914363,46.60099],[7.914776,46.601784],[7.914373,46.602727],[7.914522,46.604524],[7.912877,46.606682],[7.912669,46.607396],[7.911789,46.60863],[7.911713,46.609346],[7.91131,46.610158],[7.911705,46.610722],[7.912412,46.610874],[7.9131,46.61066],[7.913406,46.610196],[7.913365,46.609407],[7.914781,46.607953],[7.915743,46.607471],[7.917557,46.607407],[7.918978,46.606762],[7.919926,46.605399],[7.920589,46.604972]]}},{"type":"Feature","properties":{"id":"wengen-mannlichen-cable"},"geometry":{"type":"LineString","coordinates":[[7.921495,46.606252],[7.940946,46.613164]]}},{"type":"Feature","properties":{"id":"mannlichen-kleine-scheidegg-hike"},"geometry":{"type":"LineString","coordinates":[[7.943273,46.61102],[7.943971,46.609705],[7.944994,46.60866],[7.945153,46.607951],[7.945446,46.60765],[7.945932,46.607599],[7.947725,46.60686],[7.947966,46.606358],[7.948352,46.606257],[7.948943,46.605753],[7.949104,46.605107],[7.950226,46.604453],[7.950855,46.604293],[7.952084,46.602748],[7.952755,46.602382],[7.953112,46.601921],[7.953611,46.60173],[7.953893,46.601247],[7.954977,46.600923],[7.955421,46.600613],[7.956164,46.600591],[7.95663,46.600313],[7.957035,46.600412],[7.958003,46.599601],[7.959754,46.599336],[7.960584,46.599057],[7.960704,46.598456],[7.960286,46.597717],[7.961582,46.596603],[7.960734,46.595456],[7.96008,46.594967],[7.959648,46.594883],[7.957052,46.595007],[7.956576,46.594901],[7.956176,46.59451],[7.955338,46.594228],[7.955053,46.593823],[7.954402,46.593702],[7.954838,46.593246],[7.956429,46.592633],[7.957501,46.591824],[7.958336,46.591575],[7.959237,46.591019],[7.959314,46.590337],[7.960104,46.589887],[7.960692,46.589052],[7.960803,46.588603],[7.960605,46.58803],[7.960257,46.587778],[7.960278,46.587019],[7.960687,46.586701],[7.96074,46.585642],[7.961307,46.585184]]}},{"type":"Feature","properties":{"id":"kleine-scheidegg-grindelwald-rail"},"geometry":{"type":"LineString","coordinates":[[7.960059,46.584866],[7.961373,46.585397],[7.962348,46.585419],[7.96532,46.584506],[7.966659,46.583715],[7.968794,46.583468],[7.970437,46.582885],[7.973999,46.583389],[7.97517,46.584019],[7.976225,46.584876],[7.979145,46.585399],[7.981639,46.58666],[7.982937,46.588502],[7.984704,46.589206],[7.986929,46.590674],[7.988235,46.591188],[7.989036,46.591852],[7.995756,46.593904],[7.997417,46.594984],[7.999207,46.597997],[8.002349,46.600497],[8.003493,46.600979],[8.004587,46.601107],[8.005378,46.601575],[8.006715,46.601802],[8.007162,46.602236],[8.007499,46.60336],[8.008704,46.603615],[8.009011,46.603815],[8.009319,46.60473],[8.010241,46.605967],[8.009999,46.606661],[8.01005,46.607179],[8.011345,46.608579],[8.011271,46.60917],[8.010324,46.611109],[8.010486,46.611567],[8.012015,46.612375],[8.013061,46.612325],[8.014533,46.612582],[8.016621,46.613753],[8.020875,46.616402],[8.021615,46.618503],[8.023083,46.619395],[8.024708,46.620102],[8.024883,46.620701],[8.024414,46.62122],[8.024144,46.621976],[8.023396,46.622683],[8.024136,46.62213],[8.025089,46.621991],[8.025846,46.621706],[8.028353,46.621547],[8.028855,46.621706],[8.029409,46.62213],[8.029584,46.623343],[8.031343,46.624392],[8.03187,46.624499],[8.033218,46.62436]]}},{"type":"Feature","properties":{"id":"grindelwald-wengen-rail"},"geometry":{"type":"MultiLineString","coordinates":[[[7.960059,46.584866],[7.961373,46.585397],[7.962348,46.585419],[7.96532,46.584506],[7.966659,46.583715],[7.968794,46.583468],[7.970437,46.582885],[7.973999,46.583389],[7.97517,46.584019],[7.976225,46.584876],[7.979145,46.585399],[7.981639,46.58666],[7.982937,46.588502],[7.984704,46.589206],[7.986929,46.590674],[7.988235,46.591188],[7.989036,46.591852],[7.995756,46.593904],[7.997417,46.594984],[7.999207,46.597997],[8.002349,46.600497],[8.003493,46.600979],[8.004587,46.601107],[8.005378,46.601575],[8.006715,46.601802],[8.007162,46.602236],[8.007499,46.60336],[8.008704,46.603615],[8.009011,46.603815],[8.009319,46.60473],[8.010241,46.605967],[8.009999,46.606661],[8.01005,46.607179],[8.011345,46.608579],[8.011271,46.60917],[8.010324,46.611109],[8.010486,46.611567],[8.012015,46.612375],[8.013061,46.612325],[8.014533,46.612582],[8.016621,46.613753],[8.020875,46.616402],[8.021615,46.618503],[8.023083,46.619395],[8.024708,46.620102],[8.024883,46.620701],[8.024414,46.62122],[8.024144,46.621976],[8.023396,46.622683],[8.024136,46.62213],[8.025089,46.621991],[8.025846,46.621706],[8.028353,46.621547],[8.028855,46.621706],[8.029409,46.62213],[8.029584,46.623343],[8.031343,46.624392],[8.03187,46.624499],[8.033218,46.62436]],[[7.960124,46.584967],[7.958972,46.584381],[7.958773,46.583181],[7.956447,46.581354],[7.955638,46.580016],[7.954689,46.579377],[7.953496,46.579135],[7.952686,46.578513],[7.950434,46.577657],[7.948152,46.576155],[7.946983,46.575927],[7.942244,46.575924],[7.940381,46.575381],[7.937232,46.5759],[7.93639,46.576189],[7.933039,46.578704],[7.933527,46.58032],[7.933385,46.58133],[7.932793,46.582485],[7.934076,46.584028],[7.933938,46.584354],[7.933188,46.584898],[7.933027,46.585297],[7.933559,46.586715],[7.93328,46.587758],[7.933547,46.589438],[7.933238,46.5899],[7.931869,46.590467],[7.931411,46.591292],[7.931719,46.592391],[7.931425,46.593195],[7.931883,46.593915],[7.932348,46.594453],[7.933776,46.594978],[7.934223,46.595423],[7.934145,46.596442],[7.933692,46.597376],[7.933119,46.598019],[7.932179,46.598485],[7.930864,46.598891],[7.929251,46.599036],[7.927057,46.599928],[7.926716,46.60101],[7.927332,46.60204],[7.927346,46.602417],[7.925745,46.603698],[7.92526,46.604634],[7.924577,46.604772],[7.922771,46.604385],[7.920961,46.604909]]]}},{"type":"Feature","properties":{"id":"wengen-brixen-via-zurich-rail"},"geometry":{"type":"MultiLineString","coordinates":[[[7.908157,46.598109],[7.908283,46.595788],[7.908973,46.59478],[7.910659,46.594073],[7.913399,46.594491],[7.915486,46.597448],[7.914404,46.599598],[7.914522,46.604524],[7.911789,46.60863],[7.91131,46.610158],[7.911705,46.610722],[7.9131,46.61066],[7.913365,46.609407],[7.914781,46.607953],[7.918978,46.606762],[7.920589,46.604972]],[[7.869798,46.690694],[7.872048,46.690802],[7.873371,46.689917],[7.874593,46.682691],[7.876435,46.679261],[7.875365,46.675845],[7.870348,46.672572],[7.869603,46.671625],[7.870784,46.668111],[7.86914,46.665171],[7.870354,46.663051],[7.869196,46.661021],[7.868551,46.655497],[7.870503,46.652904],[7.872715,46.651372],[7.874306,46.647621],[7.876288,46.645616],[7.879655,46.643662],[7.884757,46.641986],[7.887757,46.638961],[7.889209,46.638561],[7.892128,46.638463],[7.893348,46.638027],[7.895609,46.634781],[7.899019,46.63375],[7.901364,46.630764],[7.902963,46.629557],[7.902861,46.628104],[7.903959,46.624302],[7.903618,46.62237],[7.902174,46.619755],[7.902663,46.617949],[7.901918,46.615932],[7.902988,46.613962],[7.901981,46.611775],[7.902944,46.608798],[7.905357,46.60708],[7.906692,46.603127],[7.906454,46.600801],[7.907659,46.599384],[7.908019,46.5981]],[[7.869807,46.691017],[7.862365,46.690339],[7.858472,46.690906],[7.85654,46.690358],[7.854238,46.687106],[7.85196,46.684998],[7.850659,46.679207],[7.84965,46.677457],[7.840155,46.670315],[7.828764,46.664981],[7.823941,46.6617],[7.820443,46.660227],[7.816827,46.659674],[7.815067,46.659794],[7.808858,46.662512],[7.806686,46.664129],[7.803895,46.664448],[7.801737,46.66395],[7.792729,46.659965],[7.790268,46.659329],[7.787387,46.657754],[7.782403,46.657447],[7.777195,46.656266],[7.772815,46.654673],[7.770848,46.654692],[7.768181,46.655605],[7.76636,46.655792],[7.760531,46.654279],[7.75158,46.65639],[7.745844,46.659464],[7.744103,46.661197],[7.741395,46.662345],[7.73414,46.66381],[7.729728,46.66361],[7.725567,46.665334],[7.723196,46.666824],[7.718565,46.667456],[7.713825,46.669568],[7.705971,46.671664],[7.703208,46.672052],[7.69654,46.674147],[7.690044,46.678448],[7.685776,46.68268],[7.682245,46.684592],[7.677478,46.688184],[7.673923,46.689533],[7.668444,46.68973],[7.665663,46.690651],[7.664004,46.69209],[7.661864,46.695958],[7.652667,46.701794],[7.651307,46.704719],[7.650143,46.705908],[7.644794,46.708856],[7.633667,46.71386],[7.620935,46.721074],[7.619694,46.722341],[7.619564,46.724465],[7.62563,46.743096],[7.626703,46.744359],[7.632453,46.748066],[7.633091,46.749171],[7.632962,46.750407],[7.631025,46.753454],[7.62355,46.758841],[7.619779,46.760773],[7.615341,46.760923],[7.613221,46.761834],[7.590472,46.779908],[7.587939,46.782438],[7.58587,46.785342],[7.584312,46.788837],[7.556253,46.883536],[7.554446,46.88676],[7.549221,46.892614],[7.536364,46.914492],[7.531536,46.919093],[7.528795,46.921119],[7.496655,46.939035],[7.492462,46.941737],[7.483251,46.951191],[7.48012,46.961171],[7.477915,46.963097],[7.474966,46.964527],[7.466496,46.96666],[7.463638,46.966901],[7.447632,46.963156],[7.44607,46.962205],[7.443673,46.959694],[7.442859,46.955541],[7.439956,46.949941],[7.43926,46.94911],[7.437525,46.948384]],[[7.437525,46.948384],[7.439743,46.949569],[7.442859,46.955541],[7.443407,46.959252],[7.446726,46.962686],[7.448688,46.963516],[7.467172,46.968211],[7.469866,46.969997],[7.47042,46.97125],[7.470312,46.972703],[7.465854,46.980789],[7.465187,46.983117],[7.465626,46.986194],[7.467834,46.989314],[7.472503,46.992383],[7.478312,46.994905],[7.48292,46.996254],[7.492451,46.998202],[7.498083,47.000061],[7.503085,47.002496],[7.507775,47.005748],[7.512216,47.010416],[7.522097,47.025419],[7.525015,47.031936],[7.527352,47.041129],[7.529063,47.044396],[7.531594,47.047733],[7.535169,47.051117],[7.539241,47.05395],[7.553048,47.060586],[7.557156,47.062961],[7.561285,47.066109],[7.56493,47.069923],[7.570203,47.077494],[7.572443,47.082572],[7.574383,47.09654],[7.578735,47.114356],[7.582905,47.126672],[7.588853,47.139745],[7.591968,47.144006],[7.595735,47.147823],[7.600785,47.151683],[7.606589,47.155009],[7.611744,47.157249],[7.62152,47.16069],[7.628806,47.16427],[7.644437,47.173866],[7.664268,47.187696],[7.673372,47.192325],[7.684055,47.195594],[7.703386,47.199023],[7.745593,47.208699],[7.751428,47.210394],[7.757143,47.212657],[7.762427,47.215411],[7.770098,47.220457],[7.786561,47.230051],[7.791003,47.233785],[7.802102,47.244999],[7.807675,47.24889],[7.815983,47.252628],[7.827051,47.25554],[7.83238,47.257324],[7.840426,47.261458],[7.84645,47.266397],[7.851047,47.272734],[7.853441,47.279962],[7.85427,47.291092],[7.855634,47.294197],[7.857937,47.296961],[7.860084,47.29868],[7.863744,47.300675],[7.876009,47.305501],[7.88649,47.30861],[7.88936,47.310205],[7.891425,47.312149],[7.893181,47.315726],[7.893716,47.322005],[7.895623,47.327],[7.897144,47.329451],[7.902701,47.336018],[7.906272,47.339375],[7.907867,47.341958],[7.908133,47.344005],[7.90714,47.347583],[7.90857,47.35435],[7.911241,47.357352],[7.916487,47.360088],[7.91912,47.360622],[7.921578,47.360404],[7.923656,47.359668],[7.928166,47.357145],[7.931555,47.356001],[7.948644,47.353692],[7.956988,47.350411],[7.959595,47.350178],[7.962136,47.350449],[7.991163,47.361141],[8.001269,47.363671],[8.005556,47.365544],[8.008632,47.36766],[8.011013,47.370128],[8.014272,47.376583],[8.017027,47.379871],[8.021534,47.382885],[8.026961,47.385001],[8.060335,47.393401],[8.11906,47.401894],[8.13088,47.40407],[8.135424,47.404216],[8.139546,47.403459],[8.142527,47.402227],[8.146857,47.399215],[8.149475,47.397981],[8.174346,47.39032],[8.177955,47.390266],[8.199063,47.393537],[8.201967,47.394392],[8.204429,47.395948],[8.20922,47.403844],[8.216148,47.408493],[8.21941,47.410105],[8.232429,47.413872],[8.239399,47.416293],[8.242871,47.418404],[8.24843,47.423881],[8.252828,47.426074],[8.257436,47.426929],[8.269944,47.426915],[8.337259,47.438017],[8.340244,47.437903],[8.343799,47.437158],[8.38647,47.421773],[8.401951,47.410626],[8.404177,47.407974],[8.407406,47.402529],[8.4088,47.401379],[8.410771,47.400533],[8.428079,47.397919],[8.455875,47.399887],[8.459101,47.399743],[8.491528,47.391147],[8.49863,47.389789],[8.508347,47.38665],[8.518873,47.383763],[8.523135,47.381348],[8.527455,47.381092],[8.536827,47.378643]],[[8.540333,47.378379],[8.528704,47.381366],[8.524128,47.38335],[8.512999,47.38635],[8.511004,47.387887],[8.510702,47.389916],[8.514001,47.396068],[8.516413,47.398249],[8.519673,47.399654],[8.530434,47.402052],[8.532938,47.403021],[8.535316,47.404708],[8.539183,47.409576],[8.546757,47.41316],[8.561234,47.428713],[8.562066,47.430224],[8.562653,47.434476],[8.561958,47.436082],[8.559627,47.438614],[8.559071,47.440733],[8.559475,47.447097],[8.560349,47.448792],[8.561627,47.449957],[8.564738,47.45119],[8.568442,47.451371],[8.57141,47.450675],[8.578207,47.4476],[8.583773,47.446154],[8.588061,47.445656],[8.601673,47.445222],[8.603986,47.444834],[8.614983,47.44189],[8.621764,47.439208],[8.63686,47.436908],[8.639422,47.436218],[8.642464,47.434295],[8.646227,47.429319],[8.64796,47.427822],[8.659919,47.423178],[8.675852,47.420772],[8.678686,47.420801],[8.68136,47.421369],[8.683882,47.422546],[8.685691,47.424118],[8.692123,47.434455],[8.694855,47.43589],[8.701671,47.437452],[8.703458,47.438586],[8.704631,47.439985],[8.70517,47.442305],[8.704179,47.447716],[8.708129,47.460463],[8.706924,47.464912],[8.706104,47.476121],[8.706464,47.478332],[8.726677,47.504124],[8.729137,47.505257],[8.731172,47.505084],[8.744962,47.500631],[8.753055,47.498703],[8.757852,47.498889],[8.772897,47.50232],[8.776462,47.502709],[8.780839,47.502155],[8.798499,47.498225],[8.800686,47.498577],[8.805432,47.500461],[8.811063,47.500151],[8.81346,47.500462],[8.815417,47.501268],[8.819396,47.503888],[8.830778,47.50699],[8.834201,47.507418],[8.837596,47.507167],[8.840636,47.506308],[8.856582,47.499911],[8.882531,47.495481],[8.904123,47.487663],[8.905905,47.486665],[8.907183,47.485275],[8.909367,47.479168],[8.913817,47.475836],[8.91697,47.474106],[8.933429,47.466966],[8.946789,47.462144],[8.950448,47.461661],[8.970497,47.460874],[8.973634,47.459755],[8.97823,47.456226],[8.980056,47.455563],[8.982769,47.455219],[8.986558,47.45584],[8.999354,47.461588],[9.009466,47.463584],[9.014281,47.463344],[9.021821,47.46075],[9.024398,47.460317],[9.027178,47.460528],[9.03397,47.462311],[9.042028,47.461941],[9.043939,47.461302],[9.045378,47.459454],[9.043111,47.451079],[9.043468,47.449605],[9.044853,47.44811],[9.046688,47.447233],[9.048929,47.446866],[9.054331,47.447743],[9.056786,47.447696],[9.066218,47.445398],[9.070145,47.445869],[9.079003,47.44989],[9.084771,47.450544],[9.09301,47.452886],[9.095135,47.453055],[9.100833,47.452571],[9.103152,47.451943],[9.108719,47.449305],[9.114206,47.445777],[9.120259,47.443203],[9.122709,47.442482],[9.127414,47.441939],[9.129237,47.441138],[9.131452,47.43818],[9.130527,47.434787],[9.130661,47.433387],[9.131465,47.43221],[9.132878,47.431356],[9.13462,47.43096],[9.138666,47.431032],[9.144179,47.430139],[9.148874,47.430094],[9.159792,47.428253],[9.16234,47.427083],[9.165812,47.42332],[9.167891,47.422098],[9.170944,47.421532],[9.177375,47.422057],[9.180399,47.421428],[9.192323,47.413713],[9.209435,47.408245],[9.226451,47.405556],[9.229987,47.405435],[9.233713,47.406385],[9.240424,47.409873],[9.245502,47.411038],[9.2508,47.411614],[9.264193,47.411824],[9.271904,47.410461],[9.305383,47.403005],[9.30821,47.402732],[9.316871,47.402873],[9.323514,47.403964],[9.329635,47.407129],[9.336483,47.408411],[9.347611,47.41298],[9.354126,47.414427],[9.358292,47.415869],[9.362373,47.417617],[9.365512,47.420024],[9.373158,47.426255],[9.374877,47.429248],[9.376984,47.430947],[9.379173,47.431803],[9.385153,47.433194],[9.391508,47.434268],[9.399106,47.436816],[9.400093,47.437849],[9.400349,47.439125],[9.398228,47.442119],[9.397998,47.443558],[9.400672,47.44681],[9.401362,47.44962],[9.404576,47.453389],[9.404964,47.456038],[9.40416,47.459718],[9.405499,47.464973],[9.406657,47.466777],[9.407874,47.467729],[9.412859,47.469028],[9.414855,47.470271],[9.415495,47.472341],[9.414222,47.474844],[9.414179,47.476142],[9.415114,47.47757],[9.417167,47.478514],[9.419023,47.478725],[9.421011,47.478403],[9.424659,47.476217],[9.426648,47.475712],[9.428829,47.47583],[9.432691,47.477039],[9.435153,47.476937],[9.43699,47.476166],[9.441501,47.47292],[9.443739,47.47222],[9.446249,47.472378],[9.449559,47.473837],[9.453541,47.474748],[9.455643,47.474425],[9.458796,47.472895],[9.460792,47.472653],[9.465324,47.473832],[9.473964,47.474351],[9.481152,47.475666],[9.490402,47.475614],[9.4976,47.477045],[9.516109,47.478513],[9.522174,47.479541],[9.530269,47.479582],[9.544508,47.482524],[9.555113,47.48291],[9.574814,47.478649],[9.577899,47.477477],[9.588315,47.470115],[9.594002,47.463318],[9.596551,47.461811],[9.603521,47.460236],[9.610075,47.459498],[9.620183,47.45695],[9.651895,47.450682],[9.654635,47.449758],[9.659614,47.446679],[9.662399,47.446266],[9.664707,47.446911],[9.66622,47.448292],[9.679564,47.476036],[9.681371,47.478196],[9.683371,47.479223],[9.685916,47.479746],[9.716016,47.480801],[9.721146,47.481413],[9.722471,47.482358],[9.723007,47.483638],[9.721029,47.494549],[9.721253,47.496235],[9.7223,47.498094],[9.72424,47.499636],[9.726821,47.500665],[9.739629,47.503]],[[9.741009,47.503414],[9.737274,47.502354],[9.727953,47.500922],[9.725287,47.500148],[9.723453,47.499129],[9.722012,47.497726],[9.721029,47.494549],[9.726099,47.468434],[9.727516,47.465324],[9.72934,47.463346],[9.731653,47.461729],[9.750051,47.452549],[9.752287,47.450566],[9.753739,47.448004],[9.755163,47.443598],[9.755109,47.440778],[9.753938,47.438349],[9.748593,47.431684],[9.747132,47.423063],[9.745625,47.421088],[9.74346,47.419553],[9.727435,47.413555],[9.725573,47.412533],[9.723982,47.411012],[9.723006,47.408072],[9.724753,47.399812],[9.724811,47.397337],[9.723692,47.394126],[9.721349,47.391467],[9.684446,47.367318],[9.67714,47.361843],[9.658562,47.350507],[9.652018,47.347405],[9.647423,47.343955],[9.640417,47.340419],[9.6379,47.338136],[9.626127,47.324119],[9.624781,47.321794],[9.62266,47.315632],[9.62249,47.312186],[9.623689,47.309614],[9.633243,47.296801],[9.634557,47.294273],[9.635058,47.29081],[9.634023,47.284115],[9.637663,47.271576],[9.637628,47.267847],[9.636519,47.265405],[9.63475,47.263489],[9.632799,47.262192],[9.624098,47.257987],[9.61489,47.248784],[9.605381,47.242009],[9.601829,47.238143],[9.601522,47.234926],[9.603342,47.231751],[9.607056,47.229207],[9.610378,47.228334],[9.618693,47.227735],[9.627403,47.225459],[9.630964,47.224063],[9.636789,47.220816],[9.649658,47.215798],[9.663145,47.2077],[9.674039,47.200018],[9.677809,47.198047],[9.681668,47.196813],[9.69529,47.193823],[9.705451,47.192353],[9.71127,47.190373],[9.715366,47.187728],[9.720507,47.181421],[9.723021,47.179737],[9.726215,47.17841],[9.73014,47.17759],[9.734666,47.177511],[9.743423,47.179256],[9.756989,47.181302],[9.762565,47.181689],[9.769265,47.180825],[9.777836,47.177838],[9.798542,47.168768],[9.800966,47.166775],[9.80361,47.162723],[9.805711,47.160637],[9.811629,47.156952],[9.827396,47.145795],[9.829314,47.145026],[9.833424,47.145572],[9.846278,47.144876],[9.864438,47.145087],[9.869421,47.143609],[9.873217,47.143346],[9.878664,47.144722],[9.883663,47.146827],[9.902679,47.148591],[9.906015,47.150465],[9.908161,47.150717],[9.909451,47.15037],[9.911998,47.148858],[9.915905,47.148626],[9.923731,47.146699],[9.936601,47.142598],[9.941658,47.141711],[9.953065,47.134976],[9.962643,47.130961],[9.964115,47.130766],[9.969299,47.131246],[9.972189,47.130663],[9.975619,47.130752],[9.977072,47.130349],[9.979615,47.128809],[9.983542,47.127571],[9.985205,47.127735],[9.987778,47.128744],[9.989449,47.128764],[9.991077,47.128188],[9.994249,47.125657],[9.996141,47.125154],[10.003874,47.125807],[10.007949,47.12744],[10.013658,47.128656],[10.018395,47.12908],[10.026506,47.132299],[10.036869,47.133124],[10.038676,47.1328],[10.041057,47.131616],[10.0427,47.13147],[10.04527,47.132301],[10.048931,47.134196],[10.056646,47.134036],[10.064238,47.135524],[10.066901,47.135225],[10.073811,47.132924],[10.075805,47.132732],[10.080746,47.133775],[10.085795,47.133994],[10.087836,47.134532],[10.090563,47.135947],[10.092737,47.13617],[10.104599,47.136137],[10.108834,47.13579],[10.113615,47.134539],[10.119419,47.131924],[10.125638,47.131144],[10.260388,47.125702],[10.26545,47.126586],[10.271702,47.12946],[10.279653,47.132222],[10.282586,47.133843],[10.289011,47.138881],[10.292158,47.140351],[10.2957,47.141296],[10.310045,47.142817],[10.323472,47.143253],[10.333388,47.145987],[10.345478,47.146128],[10.365809,47.149381],[10.382297,47.150072],[10.389796,47.14896],[10.394757,47.149743],[10.400672,47.148351],[10.406406,47.147646],[10.408486,47.146887],[10.410795,47.145263],[10.414865,47.141352],[10.417394,47.139872],[10.417855,47.137317],[10.418541,47.136297],[10.424614,47.133822],[10.428617,47.130712],[10.43666,47.129367],[10.439835,47.129304],[10.448834,47.127269],[10.455702,47.126665],[10.458798,47.125579],[10.461249,47.123653],[10.465107,47.122662],[10.469155,47.119244],[10.472371,47.117616],[10.477555,47.116643],[10.484362,47.116977],[10.487545,47.115824],[10.488831,47.115717],[10.493228,47.116824],[10.495295,47.118073],[10.497586,47.120773],[10.500303,47.126513],[10.501839,47.1276],[10.506125,47.128112],[10.508917,47.129714],[10.51275,47.130555],[10.515517,47.131841],[10.519295,47.132704],[10.522214,47.134033],[10.528965,47.134456],[10.534336,47.137216],[10.542673,47.139339],[10.547879,47.139225],[10.553224,47.139599],[10.55637,47.138826],[10.55876,47.138694],[10.566126,47.141411],[10.571162,47.146187],[10.577793,47.147871],[10.592133,47.153932],[10.594775,47.155404],[10.598306,47.159059],[10.600537,47.16549],[10.602809,47.168584],[10.605591,47.170652],[10.613335,47.174537],[10.618583,47.179218],[10.621115,47.180817],[10.624399,47.182115],[10.632471,47.184144],[10.641076,47.185692],[10.643203,47.187073],[10.647503,47.191389],[10.654844,47.195599],[10.669969,47.199715],[10.674717,47.20198],[10.67683,47.202163],[10.682671,47.201779],[10.684483,47.202065],[10.690288,47.206313],[10.698062,47.208982],[10.700817,47.210381],[10.735926,47.21572],[10.743087,47.215539],[10.750239,47.216048],[10.757651,47.218507],[10.760485,47.21898],[10.765635,47.218371],[10.768984,47.216816],[10.773812,47.215966],[10.779303,47.213383],[10.783177,47.212489],[10.786916,47.210897],[10.79753,47.210446],[10.803099,47.21184],[10.806667,47.211498],[10.808449,47.211698],[10.813371,47.214376],[10.818173,47.216327],[10.821787,47.223362],[10.82276,47.224441],[10.82511,47.22522],[10.829965,47.225216],[10.835893,47.226939],[10.837139,47.228018],[10.840028,47.232494],[10.841399,47.233596],[10.846853,47.234695],[10.850441,47.236674],[10.853717,47.237718],[10.857776,47.238434],[10.870588,47.239604],[10.874914,47.240776],[10.878247,47.242275],[10.882782,47.245562],[10.888846,47.252128],[10.895253,47.256505],[10.900149,47.261216],[10.90283,47.262971],[10.906526,47.264583],[10.910213,47.26557],[10.94005,47.270695],[10.952811,47.272286],[10.957059,47.273727],[10.963247,47.27674],[10.971513,47.279515],[10.999521,47.28728],[11.025339,47.29209],[11.042255,47.292806],[11.050553,47.293956],[11.055569,47.295114],[11.063465,47.298591],[11.068982,47.300013],[11.073673,47.300524],[11.082013,47.300793],[11.088569,47.301855],[11.092357,47.302088],[11.105161,47.30153],[11.120181,47.299831],[11.126627,47.297568],[11.137379,47.291185],[11.15963,47.282609],[11.163711,47.281821],[11.191691,47.279668],[11.194966,47.279144],[11.2374,47.262991],[11.243595,47.261319],[11.252385,47.260899],[11.254795,47.261386],[11.260146,47.263301],[11.264488,47.263635],[11.273147,47.262127],[11.290472,47.257632],[11.316021,47.256888],[11.324685,47.254926],[11.331187,47.254275],[11.336568,47.252312],[11.339569,47.251768],[11.343749,47.251779],[11.351012,47.253109],[11.353287,47.253219],[11.36697,47.250937],[11.369597,47.251326],[11.375422,47.253519],[11.381369,47.25485],[11.392476,47.255457],[11.39726,47.254484],[11.3994,47.254724],[11.400512,47.255365],[11.401162,47.256403],[11.400456,47.259718],[11.401207,47.262572]],[[11.401168,47.263168],[11.400366,47.260025],[11.402063,47.254468],[11.401705,47.248612],[11.399798,47.246679],[11.395651,47.245399],[11.392846,47.243459],[11.391568,47.241698],[11.389683,47.237159],[11.389608,47.235793],[11.390814,47.23167],[11.388709,47.22648],[11.38988,47.222867],[11.391516,47.220475],[11.390282,47.217589],[11.390524,47.21572],[11.391812,47.21412],[11.396577,47.212336],[11.4,47.209666],[11.401728,47.204513],[11.405856,47.201054],[11.405838,47.197236],[11.406622,47.195973],[11.411019,47.193881],[11.41625,47.193294],[11.419897,47.191028],[11.420951,47.188795],[11.418343,47.185458],[11.418845,47.183434],[11.424115,47.177896],[11.426399,47.177012],[11.43114,47.176216],[11.433908,47.174179],[11.435851,47.170968],[11.440162,47.166839],[11.441416,47.164462],[11.444672,47.162254],[11.446285,47.159685],[11.449341,47.156857],[11.449955,47.153506],[11.452436,47.15045],[11.451682,47.146469],[11.453568,47.144155],[11.455318,47.140124],[11.45398,47.135999],[11.454425,47.130638],[11.451683,47.125331],[11.450922,47.122673],[11.45212,47.112466],[11.453299,47.110654],[11.462743,47.101891],[11.468954,47.092008],[11.470912,47.086359],[11.476614,47.080446],[11.481002,47.078859],[11.483535,47.076747],[11.48428,47.073953],[11.486627,47.070197],[11.486684,47.067014],[11.487762,47.065803],[11.489942,47.06491],[11.496981,47.063315],[11.50551,47.063758],[11.507344,47.062979],[11.508177,47.061961],[11.508296,47.060812],[11.5076,47.059659],[11.506412,47.058899],[11.504872,47.05853],[11.502601,47.0588],[11.499247,47.060372],[11.492653,47.061497],[11.49056,47.061377],[11.48868,47.060337],[11.487961,47.058982],[11.487868,47.049655],[11.485817,47.046946],[11.486277,47.043637],[11.483465,47.037765],[11.484365,47.035982],[11.492749,47.029633],[11.495858,47.028241],[11.500687,47.027623],[11.502346,47.026853],[11.503235,47.025428],[11.502443,47.022872],[11.502875,47.021512],[11.505317,47.019477],[11.508454,47.018024],[11.509433,47.017144],[11.509571,47.015478],[11.5071,47.012491],[11.507777,47.006412],[11.506381,47.003636]],[[11.505268,47.002209],[11.496713,46.99015],[11.494769,46.98543],[11.493207,46.983256],[11.490864,46.981503],[11.478732,46.975411],[11.476005,46.974459],[11.459836,46.971043],[11.423777,46.960946],[11.419188,46.960737],[11.40437,46.962244],[11.40025,46.961718],[11.396589,46.960154],[11.393981,46.957732],[11.392889,46.954854],[11.393429,46.951848],[11.3949,46.950084],[11.397441,46.948984],[11.405973,46.948859],[11.41107,46.947025],[11.416187,46.946764],[11.422916,46.944751],[11.429151,46.943892],[11.437424,46.941018],[11.439196,46.940026],[11.44583,46.933707],[11.449361,46.931879],[11.450008,46.930578],[11.4495,46.928497],[11.449671,46.92649],[11.447404,46.923566],[11.447238,46.9212],[11.444724,46.914387],[11.443155,46.913078],[11.439143,46.911779],[11.436664,46.909053],[11.432154,46.906339],[11.431315,46.904908],[11.431632,46.901482],[11.44797,46.890559],[11.449894,46.887924],[11.451006,46.883683],[11.452859,46.881948],[11.485997,46.870089],[11.506643,46.860658],[11.516755,46.847844],[11.521182,46.845583],[11.533159,46.831468],[11.535231,46.827204],[11.537216,46.818033],[11.539673,46.814308],[11.542119,46.813526],[11.546772,46.813825],[11.550978,46.812192],[11.557429,46.811812],[11.564089,46.808629],[11.577611,46.804639],[11.586043,46.802681],[11.592692,46.799629],[11.599548,46.797407],[11.605353,46.794411],[11.607082,46.792928],[11.612335,46.784905],[11.613452,46.783879],[11.623221,46.778401],[11.627972,46.776374],[11.630622,46.774535],[11.635613,46.773334],[11.636966,46.772554],[11.638235,46.770689],[11.638517,46.769184],[11.636474,46.766229],[11.636606,46.761918],[11.633442,46.756712],[11.63287,46.752463],[11.633493,46.750975],[11.638458,46.744176],[11.639036,46.742106],[11.639048,46.736225],[11.639511,46.734297],[11.641793,46.729451],[11.644341,46.726205],[11.646504,46.721282],[11.649757,46.715865],[11.649696,46.710053]]]}},{"type":"Feature","properties":{"id":"brixen-lago-di-braies-road"},"geometry":{"type":"LineString","coordinates":[[11.649408,46.710015],[11.649416,46.713768],[11.649409,46.712958],[11.650653,46.711987],[11.652581,46.713377],[11.652409,46.715698],[11.650772,46.719554],[11.655347,46.720585],[11.655721,46.723101],[11.650268,46.73199],[11.651182,46.738326],[11.652223,46.741802],[11.651617,46.74418],[11.647664,46.747892],[11.647228,46.750494],[11.65014,46.753865],[11.651359,46.756544],[11.655049,46.760984],[11.658522,46.764449],[11.664355,46.769103],[11.66497,46.774385],[11.668314,46.77765],[11.670111,46.78122],[11.668721,46.784545],[11.667292,46.786063],[11.66612,46.788389],[11.665347,46.791992],[11.667652,46.794112],[11.674639,46.8033],[11.680018,46.806278],[11.686729,46.813296],[11.697235,46.816045],[11.702855,46.816334],[11.706338,46.817475],[11.709697,46.81771],[11.712145,46.817332],[11.715809,46.81529],[11.71922,46.814235],[11.721206,46.814156],[11.725535,46.814963],[11.728622,46.81475],[11.732891,46.815248],[11.737978,46.815021],[11.740498,46.814244],[11.743892,46.811804],[11.746284,46.810825],[11.756771,46.810103],[11.761848,46.809227],[11.766604,46.809362],[11.774062,46.810388],[11.778583,46.811913],[11.782975,46.81201],[11.785706,46.811298],[11.789473,46.811396],[11.791717,46.810936],[11.797573,46.811802],[11.802588,46.811227],[11.809166,46.808402],[11.822593,46.807846],[11.829234,46.808162],[11.835487,46.806362],[11.837708,46.805065],[11.841668,46.80422],[11.846308,46.800738],[11.849751,46.798847],[11.85157,46.79696],[11.855653,46.795188],[11.858329,46.792988],[11.861204,46.791542],[11.86309,46.790071],[11.866503,46.789732],[11.87043,46.788724],[11.871814,46.789033],[11.874454,46.790764],[11.880054,46.790835],[11.8864,46.788676],[11.887988,46.786446],[11.889274,46.785831],[11.892641,46.785712],[11.895286,46.784533],[11.897393,46.784215],[11.903947,46.786005],[11.905013,46.786008],[11.911279,46.782022],[11.91946,46.780274],[11.92266,46.78034],[11.927841,46.78145],[11.937815,46.785836],[11.941162,46.78688],[11.946633,46.788111],[11.952771,46.788526],[11.955333,46.789581],[11.961392,46.791097],[11.965736,46.793763],[11.973866,46.792437],[11.977088,46.792837],[11.982967,46.791338],[11.986301,46.791254],[11.987319,46.790687],[11.98903,46.790545],[11.991476,46.791537],[11.995449,46.792143],[11.996164,46.791664],[11.996534,46.789784],[11.998954,46.789187],[11.999219,46.787547],[12.001008,46.787541],[12.004583,46.784772],[12.012313,46.782792],[12.016379,46.77839],[12.017205,46.776223],[12.023117,46.774611],[12.029418,46.774462],[12.031582,46.773068],[12.033379,46.772572],[12.037115,46.772759],[12.038774,46.773286],[12.040312,46.773169],[12.043269,46.771617],[12.044353,46.770252],[12.043408,46.767392],[12.046588,46.765443],[12.047114,46.763008],[12.048215,46.761727],[12.050175,46.762137],[12.051835,46.761054],[12.056875,46.761238],[12.060571,46.760456],[12.063306,46.760692],[12.065974,46.762428],[12.071398,46.764246],[12.073242,46.763471],[12.074906,46.761393],[12.077312,46.762718],[12.080592,46.76309],[12.083729,46.762677],[12.087402,46.761426],[12.092766,46.760839],[12.095092,46.759403],[12.097384,46.755674],[12.100428,46.753708],[12.111993,46.751187],[12.117415,46.74887],[12.119781,46.747169],[12.123443,46.746794],[12.126904,46.745021],[12.133061,46.743703],[12.135247,46.739682],[12.136096,46.737054],[12.14046,46.733488],[12.140972,46.731745],[12.140885,46.726851],[12.140131,46.722192],[12.139545,46.721197],[12.128095,46.717398],[12.124607,46.716459],[12.119524,46.7168],[12.116752,46.715639],[12.111902,46.717673],[12.110886,46.717704],[12.108463,46.716731],[12.106023,46.71659],[12.10413,46.716049],[12.099202,46.712394],[12.092913,46.711181],[12.089572,46.710051],[12.088646,46.707748],[12.08711,46.705883],[12.087219,46.704313],[12.085739,46.702061],[12.085417,46.699815],[12.083733,46.698285],[12.083974,46.698017],[12.083204,46.69691],[12.083495,46.694845]]}},{"type":"Feature","properties":{"id":"lago-di-braies-santa-maddalena-bus"},"geometry":{"type":"LineString","coordinates":[[12.083495,46.694845],[12.083204,46.69691],[12.083974,46.698017],[12.083733,46.698285],[12.085573,46.69986],[12.085739,46.702061],[12.087219,46.704313],[12.08711,46.705883],[12.088646,46.707748],[12.089572,46.710051],[12.092913,46.711181],[12.099202,46.712394],[12.10413,46.716049],[12.106023,46.71659],[12.108463,46.716731],[12.110886,46.717704],[12.112085,46.717606],[12.116486,46.715647],[12.119751,46.716824],[12.124778,46.716473],[12.13767,46.720732],[12.139635,46.721053],[12.140885,46.726851],[12.140972,46.731745],[12.14046,46.733488],[12.135993,46.737197],[12.133241,46.743811],[12.131334,46.743882],[12.126904,46.745021],[12.123443,46.746794],[12.119781,46.747169],[12.117195,46.748983],[12.111629,46.751297],[12.100428,46.753708],[12.097384,46.755674],[12.095092,46.759403],[12.092411,46.761164],[12.087402,46.761426],[12.083729,46.762677],[12.080592,46.76309],[12.077312,46.762718],[12.074906,46.761393],[12.073242,46.763471],[12.071398,46.764246],[12.065974,46.762428],[12.063306,46.760692],[12.060571,46.760456],[12.056875,46.761238],[12.051835,46.761054],[12.050175,46.762137],[12.048215,46.761727],[12.047114,46.763008],[12.046588,46.765443],[12.043408,46.767392],[12.044353,46.770252],[12.043269,46.771617],[12.040312,46.773169],[12.038774,46.773286],[12.037115,46.772759],[12.033379,46.772572],[12.031582,46.773068],[12.029418,46.774462],[12.023117,46.774611],[12.017205,46.776223],[12.016379,46.77839],[12.012313,46.782792],[12.004583,46.784772],[12.001008,46.787541],[11.999219,46.787547],[11.998954,46.789187],[11.996534,46.789784],[11.996164,46.791664],[11.995449,46.792143],[11.991476,46.791537],[11.98903,46.790545],[11.987319,46.790687],[11.986301,46.791254],[11.982967,46.791338],[11.977088,46.792837],[11.973866,46.792437],[11.965736,46.793763],[11.961392,46.791097],[11.955333,46.789581],[11.952771,46.788526],[11.946633,46.788111],[11.941162,46.78688],[11.937815,46.785836],[11.927841,46.78145],[11.92266,46.78034],[11.91946,46.780274],[11.911279,46.782022],[11.905013,46.786008],[11.903947,46.786005],[11.897393,46.784215],[11.895286,46.784533],[11.892641,46.785712],[11.889274,46.785831],[11.887988,46.786446],[11.8864,46.788676],[11.880054,46.790835],[11.874454,46.790764],[11.871814,46.789033],[11.87043,46.788724],[11.866503,46.789732],[11.86309,46.790071],[11.861204,46.791542],[11.858329,46.792988],[11.855653,46.795188],[11.85157,46.79696],[11.849751,46.798847],[11.846308,46.800738],[11.841668,46.80422],[11.837708,46.805065],[11.835487,46.806362],[11.829234,46.808162],[11.822593,46.807846],[11.809166,46.808402],[11.802588,46.811227],[11.797573,46.811802],[11.791717,46.810936],[11.789473,46.811396],[11.785706,46.811298],[11.782975,46.81201],[11.778583,46.811913],[11.774062,46.810388],[11.766604,46.809362],[11.761848,46.809227],[11.756771,46.810103],[11.746284,46.810825],[11.743892,46.811804],[11.740498,46.814244],[11.737978,46.815021],[11.732891,46.815248],[11.728622,46.81475],[11.725535,46.814963],[11.720002,46.814144],[11.716406,46.81503],[11.711683,46.817463],[11.706924,46.817574],[11.703031,46.816358],[11.697235,46.816045],[11.69304,46.81516],[11.690573,46.81415],[11.687272,46.81357],[11.686081,46.812811],[11.682783,46.808779],[11.680018,46.806278],[11.674639,46.8033],[11.667652,46.794112],[11.665256,46.791819],[11.666203,46.788212],[11.667292,46.786063],[11.668721,46.784545],[11.670145,46.781394],[11.668314,46.77765],[11.664184,46.773957],[11.660442,46.771744],[11.643146,46.765439],[11.642681,46.764594],[11.640702,46.763532],[11.639525,46.763412],[11.63745,46.76386],[11.63694,46.764711],[11.638108,46.764758],[11.638278,46.763859],[11.634078,46.756208],[11.633558,46.752596],[11.634688,46.749753],[11.6388,46.744001],[11.639832,46.734586],[11.644365,46.727147],[11.646235,46.72318],[11.646139,46.719823],[11.648661,46.70726],[11.647217,46.702249],[11.638867,46.690563],[11.62706,46.685035],[11.624726,46.683588],[11.624078,46.683835],[11.621267,46.677903],[11.613814,46.667798],[11.607814,46.662938],[11.607442,46.660537],[11.604835,46.658693],[11.602831,46.657948],[11.602821,46.65762],[11.596996,46.65437],[11.599069,46.653084],[11.600078,46.65312],[11.601769,46.652496],[11.602423,46.6514],[11.603308,46.651214],[11.603629,46.650391],[11.60491,46.649539],[11.608635,46.649336],[11.610599,46.648756],[11.61201,46.64783],[11.613669,46.647572],[11.615347,46.646588],[11.618539,46.647717],[11.619294,46.646485],[11.620791,46.646163],[11.621801,46.644946],[11.624481,46.644579],[11.628382,46.644736],[11.632967,46.643745],[11.634299,46.642772],[11.634622,46.640895],[11.635358,46.640183],[11.636082,46.639982],[11.637431,46.640417],[11.641294,46.637776],[11.64717,46.636577],[11.651997,46.637543],[11.654631,46.636319],[11.657343,46.637041],[11.660055,46.635999],[11.664131,46.635139],[11.665857,46.635514],[11.666976,46.636466],[11.668749,46.636807],[11.669875,46.637857],[11.672503,46.637336],[11.673164,46.637857],[11.673241,46.639335],[11.675484,46.640464],[11.678431,46.640336],[11.680604,46.639844],[11.68356,46.640768],[11.687377,46.640431],[11.691931,46.641401],[11.693597,46.641417],[11.694666,46.642213],[11.697992,46.643184],[11.707748,46.642564],[11.710842,46.641466],[11.714492,46.641159],[11.71532,46.641442]]}},{"type":"Feature","properties":{"id":"santa-maddalena-viewpoint-hike"},"geometry":{"type":"LineString","coordinates":[[11.71532,46.641442],[11.715173,46.641308],[11.716162,46.640791],[11.716462,46.640901],[11.716164,46.641747],[11.716416,46.642126],[11.716703,46.641868],[11.717,46.641914],[11.71802,46.642559],[11.718778,46.642868],[11.719545,46.642933],[11.720415,46.643389],[11.720568,46.644696],[11.719389,46.644935],[11.71933,46.644769],[11.719229,46.645978],[11.718898,46.646604],[11.718575,46.646661],[11.71809,46.648057],[11.716177,46.64797],[11.715892,46.64808],[11.716065,46.648254],[11.715439,46.648664],[11.713791,46.648901],[11.712723,46.648224],[11.709372,46.647664],[11.708743,46.647694],[11.708077,46.647323],[11.707207,46.647115],[11.707387,46.646974],[11.70706,46.646936],[11.706833,46.646676],[11.70575,46.646568]]}},{"type":"Feature","properties":{"id":"santa-maddalena-ortisei-bus"},"geometry":{"type":"LineString","coordinates":[[11.71532,46.641442],[11.714492,46.641159],[11.710842,46.641466],[11.707748,46.642564],[11.697992,46.643184],[11.694666,46.642213],[11.693597,46.641417],[11.691931,46.641401],[11.687377,46.640431],[11.68356,46.640768],[11.680604,46.639844],[11.678431,46.640336],[11.675484,46.640464],[11.673241,46.639335],[11.673164,46.637857],[11.672503,46.637336],[11.669875,46.637857],[11.668749,46.636807],[11.666976,46.636466],[11.665857,46.635514],[11.664131,46.635139],[11.660055,46.635999],[11.657343,46.637041],[11.654631,46.636319],[11.651997,46.637543],[11.64717,46.636577],[11.641294,46.637776],[11.637431,46.640417],[11.636082,46.639982],[11.635358,46.640183],[11.634622,46.640895],[11.634299,46.642772],[11.632967,46.643745],[11.628382,46.644736],[11.624481,46.644579],[11.621801,46.644946],[11.620791,46.646163],[11.619294,46.646485],[11.618539,46.647717],[11.615347,46.646588],[11.613669,46.647572],[11.61201,46.64783],[11.610599,46.648756],[11.608635,46.649336],[11.604821,46.649568],[11.603585,46.650438],[11.603352,46.651181],[11.602423,46.6514],[11.601769,46.652496],[11.598902,46.653157],[11.597087,46.654176],[11.596938,46.654622],[11.592726,46.653168],[11.589088,46.650999],[11.586668,46.648752],[11.584449,46.645211],[11.577206,46.643351],[11.573649,46.640828],[11.571201,46.639613],[11.571207,46.638105],[11.567762,46.637393],[11.561596,46.634739],[11.557813,46.630866],[11.554907,46.629224],[11.553418,46.627711],[11.55349,46.625691],[11.551614,46.623919],[11.551534,46.622998],[11.549271,46.621024],[11.549078,46.619118],[11.546099,46.615192],[11.544674,46.611853],[11.542005,46.60803],[11.541624,46.606534],[11.541944,46.605945],[11.54522,46.604273],[11.549771,46.603495],[11.554554,46.601665],[11.560884,46.601979],[11.564283,46.600457],[11.567597,46.601227],[11.570068,46.600612],[11.571485,46.599206],[11.574235,46.598618],[11.576809,46.59907],[11.57779,46.599629],[11.579958,46.599568],[11.582516,46.598894],[11.58509,46.599748],[11.587116,46.598823],[11.588658,46.598947],[11.589777,46.598194],[11.592359,46.598193],[11.595926,46.599366],[11.597399,46.600954],[11.599996,46.600068],[11.601298,46.601819],[11.602386,46.602297],[11.605667,46.60092],[11.607063,46.598967],[11.607909,46.598595],[11.612724,46.599193],[11.614247,46.600513],[11.615285,46.599724],[11.615934,46.597911],[11.617445,46.597283],[11.620392,46.598735],[11.621765,46.599019],[11.62231,46.598642],[11.622125,46.59596],[11.625948,46.594344],[11.628538,46.591652],[11.631303,46.590597],[11.630723,46.589085],[11.631891,46.586686],[11.633376,46.585673],[11.633403,46.585203],[11.637107,46.583142],[11.641208,46.578588],[11.647927,46.573004],[11.657097,46.573833],[11.665033,46.573313],[11.666793,46.573584],[11.668126,46.575072],[11.671685,46.57563],[11.672233,46.575314]]}},{"type":"Feature","properties":{"id":"ortisei-seceda-cable"},"geometry":{"type":"MultiLineString","coordinates":[[[11.675072,46.576421],[11.702193,46.589665]],[[11.702325,46.589805],[11.724347,46.597936]]]}},{"type":"Feature","properties":{"id":"seceda-pieralongia-hike"},"geometry":{"type":"LineString","coordinates":[[11.727393,46.597583],[11.727597,46.598071],[11.727289,46.598169],[11.727816,46.598915],[11.730362,46.600534],[11.732136,46.600905],[11.735309,46.601284],[11.735896,46.601098],[11.735408,46.601022],[11.735358,46.60083],[11.734994,46.600677],[11.735112,46.600595],[11.734638,46.600067],[11.734731,46.599862],[11.737209,46.599691],[11.738539,46.599838],[11.740347,46.599458],[11.741489,46.599483],[11.742394,46.599272],[11.743096,46.599362],[11.743525,46.599038],[11.744619,46.598868],[11.746273,46.596966],[11.747185,46.597084],[11.747951,46.597446],[11.750008,46.597089],[11.749541,46.596471],[11.750169,46.595731],[11.748921,46.595397],[11.747969,46.594501],[11.746445,46.594036],[11.745859,46.594036],[11.744598,46.593387],[11.743951,46.594759],[11.743226,46.595126],[11.742944,46.595659],[11.742026,46.595919],[11.741635,46.596237],[11.741771,46.596482],[11.741612,46.596708],[11.739963,46.597403],[11.739699,46.597691],[11.739789,46.597962],[11.739402,46.597963],[11.739364,46.598075],[11.737153,46.596937],[11.736523,46.596908],[11.735302,46.596406],[11.734342,46.59541],[11.732587,46.595014],[11.730474,46.595005],[11.729739,46.594555],[11.729412,46.595149],[11.729638,46.59542],[11.729474,46.595428],[11.729386,46.59648],[11.72955,46.596929],[11.729076,46.597062],[11.729444,46.597399],[11.729424,46.597866],[11.728699,46.597887],[11.727393,46.597583]]}},{"type":"Feature","properties":{"id":"ortisei-alpe-di-siusi-cable"},"geometry":{"type":"LineString","coordinates":[[11.67128,46.572865],[11.664709,46.558049]]}},{"type":"Feature","properties":{"id":"alpe-di-siusi-loop-hike"},"geometry":{"type":"LineString","coordinates":[[11.664709,46.558049],[11.664632,46.557884],[11.663531,46.558074],[11.662072,46.557649],[11.659175,46.557291],[11.658435,46.557005],[11.657,46.556922],[11.655498,46.556565],[11.653545,46.555732],[11.652966,46.555644],[11.652148,46.555001],[11.64937,46.554273],[11.648887,46.553726],[11.648057,46.553436],[11.647644,46.553092],[11.648308,46.552709],[11.649098,46.552816],[11.649525,46.552136],[11.651367,46.55142],[11.649685,46.55132],[11.648364,46.550668],[11.646971,46.550806],[11.646575,46.550059],[11.646436,46.549242],[11.646906,46.548162],[11.645978,46.547846],[11.645695,46.547318],[11.643318,46.546142],[11.644713,46.544343],[11.644626,46.543867],[11.64518,46.543223],[11.64553,46.542358],[11.645164,46.541833],[11.644319,46.541528],[11.645137,46.541224],[11.645684,46.540055],[11.644914,46.539522],[11.645105,46.539335],[11.644869,46.539101],[11.644997,46.538863],[11.64476,46.538731],[11.644775,46.536775],[11.645069,46.536381],[11.644933,46.536082],[11.643594,46.53531],[11.642501,46.535279],[11.641453,46.534933],[11.640948,46.534481],[11.639625,46.534199],[11.635976,46.533837],[11.633138,46.533136],[11.631977,46.533109],[11.630434,46.532481],[11.629747,46.532008],[11.629562,46.531981],[11.629595,46.532152],[11.628962,46.531484],[11.628116,46.531049],[11.626463,46.531024],[11.625484,46.531172],[11.625343,46.531383],[11.625484,46.531172],[11.626259,46.531045],[11.628116,46.531049],[11.628962,46.531484],[11.629595,46.532152],[11.629565,46.532355],[11.629024,46.53288],[11.628052,46.533213],[11.626683,46.534444],[11.623967,46.535479],[11.623262,46.536134],[11.621709,46.536269],[11.621734,46.536481],[11.6222,46.536778],[11.623873,46.537514],[11.623743,46.538047],[11.62283,46.538396],[11.621291,46.538404],[11.620922,46.538536],[11.61941,46.538238],[11.618067,46.538229],[11.618211,46.538777],[11.618688,46.539178],[11.618808,46.539574],[11.618744,46.539766],[11.618479,46.539707],[11.618097,46.540081],[11.617889,46.540984],[11.617509,46.54151],[11.617654,46.542012],[11.618081,46.542122],[11.618194,46.542454],[11.618752,46.542815],[11.620448,46.542671],[11.621745,46.542972],[11.623878,46.544697],[11.623483,46.545477],[11.623679,46.545709],[11.623529,46.545957],[11.623814,46.546167],[11.626089,46.546776],[11.627293,46.546927],[11.628172,46.547326],[11.628165,46.547779],[11.628794,46.547396],[11.629336,46.547856],[11.630434,46.548037],[11.630826,46.548604],[11.63168,46.548857],[11.632794,46.54862],[11.633491,46.548099],[11.633842,46.548118],[11.634502,46.547668],[11.634908,46.547573],[11.635811,46.546864],[11.636303,46.54693],[11.63675,46.546596],[11.638809,46.546383],[11.639325,46.546189],[11.639997,46.546254],[11.641743,46.54602],[11.643318,46.546142],[11.645695,46.547318],[11.645978,46.547846],[11.646906,46.548162],[11.646436,46.549242],[11.646656,46.550169],[11.646007,46.550648],[11.645995,46.551459],[11.648057,46.553436],[11.648976,46.553806],[11.649276,46.554214],[11.648715,46.554193],[11.648436,46.554337],[11.6489,46.555372],[11.649795,46.555781],[11.651767,46.55754],[11.653636,46.558242],[11.656585,46.558333],[11.657695,46.558635],[11.660865,46.55825],[11.663837,46.558211],[11.664239,46.557913],[11.664632,46.557884],[11.664709,46.558049]]}},{"type":"Feature","properties":{"id":"ortisei-bolzano-bus"},"geometry":{"type":"LineString","coordinates":[[11.672233,46.575314],[11.671685,46.57563],[11.668126,46.575072],[11.667532,46.574249],[11.665033,46.573313],[11.657097,46.573833],[11.648048,46.572954],[11.641208,46.578588],[11.637107,46.583142],[11.633629,46.585401],[11.631548,46.585696],[11.629157,46.58714],[11.628092,46.587907],[11.626341,46.590329],[11.623884,46.590951],[11.620475,46.59264],[11.617283,46.594699],[11.616732,46.595565],[11.613808,46.595925],[11.613072,46.595242],[11.612416,46.596467],[11.610947,46.596835],[11.606603,46.596308],[11.604087,46.597114],[11.601834,46.597348],[11.599895,46.596628],[11.598396,46.596931],[11.597295,46.596325],[11.594107,46.596073],[11.591144,46.594715],[11.587972,46.594818],[11.585301,46.594312],[11.583681,46.595116],[11.57996,46.595689],[11.577754,46.594914],[11.572498,46.594994],[11.56915,46.596482],[11.564717,46.597141],[11.56307,46.598128],[11.561368,46.597811],[11.558696,46.598517],[11.555601,46.598427],[11.552965,46.597725],[11.547203,46.5986],[11.54576,46.598525],[11.544758,46.598955],[11.542571,46.59888],[11.541706,46.598428],[11.539302,46.598744],[11.537577,46.598399],[11.534333,46.597165],[11.532113,46.59556],[11.52882,46.595674],[11.526123,46.592734],[11.526086,46.591357],[11.524334,46.589071],[11.52242,46.584175],[11.522698,46.579718],[11.520644,46.56892],[11.518904,46.566701],[11.514841,46.564323],[11.512245,46.561107],[11.511599,46.559651],[11.511965,46.555844],[11.513758,46.552807],[11.513439,46.551318],[11.511031,46.5493],[11.509122,46.546651],[11.499141,46.537618],[11.48896,46.531889],[11.488705,46.525327],[11.488237,46.524235],[11.487272,46.523185],[11.483078,46.521264],[11.481655,46.519099],[11.479394,46.517755],[11.477572,46.514959],[11.477354,46.512778],[11.473832,46.512164],[11.471731,46.512422],[11.470241,46.512011],[11.466028,46.507989],[11.461087,46.50589],[11.459167,46.504446],[11.457741,46.502672],[11.455303,46.502191],[11.45444,46.500335],[11.450762,46.497354],[11.449133,46.496679],[11.447992,46.495188],[11.442998,46.4954],[11.441797,46.494717],[11.439111,46.491947],[11.438198,46.49161],[11.435718,46.491964],[11.43367,46.493658],[11.432859,46.493748],[11.428977,46.49018],[11.426164,46.489017],[11.423511,46.488587],[11.419783,46.489378],[11.413012,46.492832],[11.407364,46.493564],[11.39881,46.492437],[11.39468,46.493917],[11.386361,46.49316],[11.378114,46.493705],[11.365665,46.491286],[11.363372,46.491301],[11.359758,46.491917],[11.359516,46.492847],[11.353968,46.494676],[11.35407,46.495025],[11.35555,46.495116],[11.357993,46.496547]]}},{"type":"Feature","properties":{"id":"bolzano-munich-airport-rail"},"geometry":{"type":"MultiLineString","coordinates":[[[11.358547,46.496342],[11.363276,46.498889],[11.367287,46.499427],[11.368954,46.498851],[11.37329,46.495798],[11.376129,46.494807],[11.378632,46.494596],[11.388755,46.495215],[11.39407,46.49434],[11.397234,46.492431],[11.401061,46.488337],[11.405635,46.486408],[11.42341,46.485674],[11.429052,46.485851],[11.432053,46.486648],[11.434415,46.487892],[11.440986,46.494368],[11.442696,46.495498],[11.445136,46.496117],[11.453358,46.496868],[11.458714,46.498233],[11.469885,46.503297],[11.480934,46.50906],[11.493935,46.520505],[11.50731,46.533843],[11.516179,46.548496],[11.522006,46.555388],[11.524684,46.559367],[11.526432,46.564999],[11.529433,46.59172],[11.530805,46.597931],[11.53454,46.60451],[11.535839,46.610756],[11.539004,46.613835],[11.53971,46.616623],[11.54103,46.618711],[11.54601,46.623762],[11.549257,46.625816],[11.550535,46.62858],[11.557158,46.634694],[11.56256,46.63593],[11.564996,46.636912],[11.570764,46.641461],[11.57351,46.642962],[11.583183,46.645246],[11.588675,46.650846],[11.596241,46.655421],[11.598579,46.656142],[11.604003,46.656563],[11.606014,46.65721],[11.612033,46.663486],[11.618271,46.666944],[11.620028,46.669099],[11.624304,46.679457],[11.626113,46.681213],[11.640433,46.691629],[11.647349,46.701726],[11.649445,46.707581],[11.649757,46.715865],[11.646504,46.721282],[11.644341,46.726205],[11.641793,46.729451],[11.639511,46.734297],[11.639048,46.736225],[11.639036,46.742106],[11.638458,46.744176],[11.633493,46.750975],[11.63287,46.752463],[11.633442,46.756712],[11.636606,46.761918],[11.636474,46.766229],[11.638517,46.769184],[11.638235,46.770689],[11.636966,46.772554],[11.635613,46.773334],[11.630622,46.774535],[11.627972,46.776374],[11.623221,46.778401],[11.613452,46.783879],[11.612335,46.784905],[11.607082,46.792928],[11.605353,46.794411],[11.599548,46.797407],[11.592692,46.799629],[11.586043,46.802681],[11.577611,46.804639],[11.564089,46.808629],[11.557429,46.811812],[11.550978,46.812192],[11.546772,46.813825],[11.542119,46.813526],[11.539673,46.814308],[11.537216,46.818033],[11.535231,46.827204],[11.533159,46.831468],[11.521182,46.845583],[11.516755,46.847844],[11.506643,46.860658],[11.485997,46.870089],[11.452859,46.881948],[11.451006,46.883683],[11.449894,46.887924],[11.44797,46.890559],[11.431632,46.901482],[11.431315,46.904908],[11.432154,46.906339],[11.436664,46.909053],[11.439143,46.911779],[11.443155,46.913078],[11.444724,46.914387],[11.447238,46.9212],[11.447404,46.923566],[11.449671,46.92649],[11.4495,46.928497],[11.450008,46.930578],[11.449361,46.931879],[11.44583,46.933707],[11.439196,46.940026],[11.437424,46.941018],[11.429151,46.943892],[11.422916,46.944751],[11.416187,46.946764],[11.41107,46.947025],[11.405973,46.948859],[11.397441,46.948984],[11.3949,46.950084],[11.393429,46.951848],[11.392889,46.954854],[11.393981,46.957732],[11.396589,46.960154],[11.40025,46.961718],[11.40437,46.962244],[11.419188,46.960737],[11.423777,46.960946],[11.459836,46.971043],[11.476005,46.974459],[11.478732,46.975411],[11.490864,46.981503],[11.493207,46.983256],[11.494769,46.98543],[11.496713,46.99015],[11.505268,47.002209]],[[11.506381,47.003636],[11.507845,47.006332],[11.507169,47.012545],[11.509554,47.015334],[11.509484,47.017159],[11.508522,47.018035],[11.505358,47.019504],[11.502912,47.021528],[11.502497,47.022867],[11.503299,47.025327],[11.502384,47.02688],[11.500703,47.027658],[11.49572,47.028321],[11.492788,47.029656],[11.48441,47.036003],[11.483515,47.037793],[11.486325,47.043632],[11.485864,47.046936],[11.487943,47.049757],[11.487997,47.058833],[11.488727,47.060316],[11.490581,47.061342],[11.492645,47.061466],[11.499231,47.060342],[11.50258,47.058772],[11.50488,47.058497],[11.506585,47.058934],[11.507732,47.059737],[11.508341,47.060809],[11.50822,47.061973],[11.507375,47.063003],[11.505526,47.063786],[11.496779,47.063377],[11.489968,47.064942],[11.487805,47.065826],[11.486697,47.067121],[11.486638,47.070327],[11.484345,47.073936],[11.483583,47.076763],[11.481069,47.07887],[11.476556,47.080544],[11.47097,47.086374],[11.469014,47.092017],[11.46277,47.101937],[11.453323,47.110697],[11.452171,47.112473],[11.450966,47.122599],[11.451663,47.124969],[11.454409,47.130261],[11.454678,47.132206],[11.454039,47.136041],[11.455353,47.14029],[11.453601,47.144202],[11.451738,47.146478],[11.452497,47.150434],[11.449931,47.153678],[11.449392,47.156864],[11.446326,47.15971],[11.444717,47.162275],[11.441464,47.16448],[11.439982,47.167137],[11.435899,47.170984],[11.43413,47.174045],[11.43115,47.176254],[11.42642,47.17704],[11.424143,47.177926],[11.418885,47.18345],[11.418395,47.185465],[11.421002,47.188785],[11.419974,47.191018],[11.416297,47.19332],[11.410961,47.193939],[11.406617,47.196045],[11.405885,47.197241],[11.405924,47.201031],[11.401774,47.204528],[11.401264,47.207015],[11.399961,47.209784],[11.396608,47.212364],[11.391852,47.214138],[11.390594,47.215688],[11.390318,47.21749],[11.391546,47.220571],[11.389915,47.222891],[11.388755,47.226512],[11.390876,47.231779],[11.389709,47.237044],[11.391352,47.241162],[11.392906,47.243459],[11.39564,47.245354],[11.399834,47.246658],[11.401749,47.248603],[11.402136,47.254472],[11.400366,47.260025],[11.401168,47.263168]],[[11.401207,47.262572],[11.402482,47.268424],[11.403528,47.270215],[11.41604,47.279011],[11.417645,47.279701],[11.494245,47.276115],[11.518387,47.279279],[11.527022,47.279219],[11.530602,47.279582],[11.539311,47.282123],[11.544091,47.284008],[11.567682,47.29818],[11.573603,47.300681],[11.58144,47.302248],[11.593751,47.301975],[11.598804,47.302577],[11.623821,47.310735],[11.636736,47.31708],[11.640658,47.318469],[11.659903,47.322145],[11.669987,47.321696],[11.674302,47.322421],[11.676501,47.323472],[11.678041,47.32474],[11.709188,47.357767],[11.712659,47.360503],[11.718557,47.363326],[11.727167,47.365615],[11.732133,47.367807],[11.759284,47.384838],[11.763734,47.386066],[11.773248,47.386744],[11.792802,47.393513],[11.796481,47.395341],[11.801035,47.399863],[11.804545,47.40174],[11.807426,47.402321],[11.817273,47.402826],[11.821856,47.404122],[11.865719,47.431645],[11.869757,47.432917],[11.878155,47.434223],[11.905383,47.441917],[11.984361,47.476821],[11.988424,47.477644],[12.041541,47.483325],[12.045532,47.48414],[12.049108,47.48544],[12.067735,47.495177],[12.070118,47.496785],[12.078517,47.508063],[12.090268,47.516342],[12.101208,47.526364],[12.103155,47.528902],[12.104032,47.531159],[12.104744,47.540271],[12.10601,47.542577],[12.108027,47.544715],[12.145469,47.574995],[12.148382,47.576107],[12.153511,47.576565],[12.157604,47.577528],[12.162671,47.579198],[12.164143,47.580028],[12.165679,47.582498],[12.164864,47.590313],[12.165897,47.592512],[12.17077,47.595774],[12.17873,47.60223],[12.195644,47.613124],[12.197279,47.614719],[12.19817,47.616674],[12.197696,47.61976],[12.193289,47.62704],[12.181534,47.638551],[12.180653,47.640041],[12.179628,47.643895],[12.175899,47.647002],[12.174948,47.648291],[12.174647,47.650549],[12.176933,47.65802],[12.176577,47.661142],[12.173282,47.666615],[12.164141,47.673967],[12.160058,47.678841],[12.156507,47.692211],[12.155206,47.701957],[12.153212,47.706076],[12.151028,47.708506],[12.148245,47.710655],[12.13053,47.721189],[12.128981,47.722705],[12.126713,47.726598],[12.124642,47.728956],[12.105361,47.742354],[12.103311,47.745486],[12.105331,47.781311],[12.106438,47.78352],[12.116976,47.798014],[12.118297,47.801686],[12.120157,47.812578],[12.135727,47.836464],[12.136463,47.839247],[12.135578,47.842304],[12.133769,47.844388],[12.131153,47.845992],[12.109633,47.853374],[12.107707,47.854322],[12.10653,47.85542],[12.101319,47.871369],[12.101477,47.874186],[12.103548,47.88091],[12.102772,47.883101],[12.10117,47.884876],[12.098398,47.886384],[12.096463,47.886906],[12.07291,47.891077],[12.067777,47.893292],[12.063853,47.896519],[12.061901,47.90038],[12.062357,47.907891],[12.06205,47.91008],[12.054435,47.933538],[12.051756,47.935898],[12.04553,47.939117],[12.037212,47.945394],[12.024467,47.951058],[12.013073,47.961208],[12.010645,47.96451],[12.005582,47.975707],[11.99517,47.985738],[11.99233,47.992615],[11.988775,47.997328],[11.986762,48.001022],[11.984506,48.003049],[11.978857,48.005621],[11.976829,48.007124],[11.975468,48.009215],[11.973618,48.015142],[11.95955,48.029289],[11.957161,48.030709],[11.95053,48.032877],[11.947353,48.034576],[11.945495,48.036306],[11.938441,48.045634],[11.935875,48.048255],[11.932449,48.050671],[11.918962,48.058465],[11.912534,48.060817],[11.90595,48.064101],[11.891623,48.06835],[11.873654,48.078728],[11.855703,48.085133],[11.822275,48.091426],[11.660959,48.126463],[11.64895,48.131648],[11.64068,48.13322],[11.622366,48.134864],[11.615815,48.133976],[11.61276,48.132773],[11.60316,48.125971],[11.596879,48.122581],[11.580397,48.119574],[11.569806,48.116754],[11.565769,48.116775],[11.56357,48.117445],[11.541674,48.127927],[11.535389,48.130353],[11.527693,48.135597],[11.526265,48.137751],[11.526381,48.139125],[11.527478,48.140666],[11.52915,48.141657],[11.531348,48.142149],[11.548618,48.141196],[11.557543,48.140226]],[[11.560511,48.141205],[11.567218,48.138894],[11.571385,48.138209],[11.581067,48.135451],[11.585605,48.132875],[11.589467,48.131592],[11.598889,48.125832],[11.601833,48.12591],[11.60457,48.127522]],[[11.60457,48.127522],[11.612749,48.132982],[11.61688,48.134328],[11.621724,48.135115],[11.629152,48.135396],[11.646694,48.134515],[11.649387,48.135108],[11.651125,48.136584],[11.651402,48.13828],[11.650179,48.141916],[11.647954,48.160141],[11.645431,48.170399],[11.645233,48.176303],[11.643662,48.182162],[11.643844,48.184569],[11.649181,48.193408],[11.672178,48.211102],[11.674862,48.213668],[11.677649,48.21822],[11.679925,48.22781],[11.681621,48.231737],[11.70128,48.250608],[11.704397,48.254446],[11.706804,48.258407],[11.708885,48.263601],[11.709825,48.26855],[11.710406,48.277025],[11.7099,48.287307],[11.710999,48.299944],[11.71804,48.320129],[11.720194,48.331701],[11.725682,48.341576],[11.728456,48.344281],[11.732402,48.34692],[11.736217,48.348981],[11.73979,48.350061],[11.785977,48.353814]]]}}]}